{"epoch":1784710044,"count":18256,"objects":[{"id":"64266","name":"STARLINK-34315","type":"PAYLOAD","l1":"1 64266U 25120L   26202.33920837  .00015723  00000-0  47545-3 0  9997","l2":"2 64266  53.1575 215.5377 0000930  79.0668 281.0439 15.34402509 64325"},{"id":"64267","name":"STARLINK-34321","type":"PAYLOAD","l1":"1 64267U 25120M   26202.32190033  .00007014  00000-0  21854-3 0  9993","l2":"2 64267  53.1567 211.8819 0001180  92.8536 267.2602 15.34399474 64438"},{"id":"64268","name":"STARLINK-34319","type":"PAYLOAD","l1":"1 64268U 25120N   26202.40386644  .00011565  00000-0  35282-3 0  9994","l2":"2 64268  53.1569 211.6803 0000966 122.8653 237.2443 15.34404709 64435"},{"id":"64269","name":"STARLINK-34298","type":"PAYLOAD","l1":"1 64269U 25120P   26202.25886842  .00014371  00000-0  43560-3 0  9999","l2":"2 64269  53.1558 212.2005 0001013  87.7414 272.3704 15.34402806 64327"},{"id":"64270","name":"STARLINK-34219","type":"PAYLOAD","l1":"1 64270U 25120Q   26202.41907196  .00015587  00000-0  47141-3 0  9994","l2":"2 64270  53.1590 215.3264 0001329  67.9585 292.1558 15.34405907 64394"},{"id":"64271","name":"STARLINK-34342","type":"PAYLOAD","l1":"1 64271U 25120R   26202.44633358  .00016400  00000-0  49534-3 0  9997","l2":"2 64271  53.1581 214.7909 0000996  55.0540 305.0556 15.34407371 64357"},{"id":"64272","name":"STARLINK-34001","type":"PAYLOAD","l1":"1 64272U 25120S   26202.45895920  .00015986  00000-0  48315-3 0  9998","l2":"2 64272  53.1576 214.8663 0000958  94.5360 265.5752 15.34405927 64304"},{"id":"64273","name":"STARLINK-34334","type":"PAYLOAD","l1":"1 64273U 25120T   26202.44422344  .00018840  00000-0  56681-3 0  9991","l2":"2 64273  53.1594 214.7699 0000915  83.8637 276.2470 15.34428107 64406"},{"id":"64274","name":"STARLINK-34272","type":"PAYLOAD","l1":"1 64274U 25120U   26202.31816756  .00009871  00000-0  30291-3 0  9995","l2":"2 64274  53.1590 215.4098 0000742  80.9114 279.1972 15.34398212 64288"},{"id":"64275","name":"STARLINK-34293","type":"PAYLOAD","l1":"1 64275U 25120V   26202.21735201  .00012574  00000-0  38264-3 0  9992","l2":"2 64275  53.1575 216.1967 0000903  87.1229 272.9877 15.34400811 64307"},{"id":"64276","name":"STARLINK-34350","type":"PAYLOAD","l1":"1 64276U 25120W   26202.32821245  .00007380  00000-0  22935-3 0  9996","l2":"2 64276  53.1564 211.9167 0001133  88.1760 271.9373 15.34399663 64434"},{"id":"64277","name":"STARLINK-34264","type":"PAYLOAD","l1":"1 64277U 25120X   26202.41696651  .00011996  00000-0  36553-3 0  9997","l2":"2 64277  53.1587 215.3088 0000634  86.9558 273.1517 15.34406305 64331"},{"id":"64278","name":"STARLINK-34353","type":"PAYLOAD","l1":"1 64278U 25120Y   26202.33289383  .00013182  00000-0  40054-3 0  9999","l2":"2 64278  53.1573 215.4983 0001229  67.7177 292.3956 15.34402966 64381"},{"id":"64279","name":"STARLINK-34377","type":"PAYLOAD","l1":"1 64279U 25120Z   26201.41840905  .00013500  00000-0  40988-3 0  9991","l2":"2 64279  53.1570 216.1926 0000501 158.0222 202.0802 15.34405628 64297"},{"id":"64280","name":"STARLINK-34359","type":"PAYLOAD","l1":"1 64280U 25120AA  26202.41065301  .00014698  00000-0  44517-3 0  9994","l2":"2 64280  53.1582 215.2703 0000950  73.1256 286.9850 15.34408439 64395"},{"id":"64281","name":"STARLINK-34366","type":"PAYLOAD","l1":"1 64281U 25120AB  26202.33710375  .00012799  00000-0  38925-3 0  9990","l2":"2 64281  53.1587 215.5213 0001720  95.4404 264.6795 15.34402667 64330"},{"id":"64282","name":"STARLINK-34381","type":"PAYLOAD","l1":"1 64282U 25120AC  26202.58335648  .00037481  00000-0  11170-2 0  9991","l2":"2 64282  53.1603 214.8058 0001369  96.4914 323.6302 15.34341825  5822"},{"id":"64283","name":"HULIANWANG DIGUI-30","type":"PAYLOAD","l1":"1 64283U 25121A   26202.54264835  .00000057  00000-0  98079-4 0  9992","l2":"2 64283  86.5003   1.9638 0001908  88.9838 271.1515 13.24409634 54700"},{"id":"64284","name":"HULIANWANG DIGUI-31","type":"PAYLOAD","l1":"1 64284U 25121B   26202.61066988  .00000044  00000-0  69306-4 0  9997","l2":"2 64284  86.5023   2.0187 0001901  89.3636 270.7716 13.24414583 54716"},{"id":"64285","name":"HULIANWANG DIGUI-32","type":"PAYLOAD","l1":"1 64285U 25121C   26202.60299104  .00000030  00000-0  35743-4 0  9998","l2":"2 64285  86.4965   1.7724 0001897  93.8797 266.2554 13.24410440 54714"},{"id":"64286","name":"HULIANWANG DIGUI-33","type":"PAYLOAD","l1":"1 64286U 25121D   26202.67099207  .00000020  00000-0  12829-4 0  9997","l2":"2 64286  86.5022   1.9817 0001916  89.7623 270.3730 13.24410073 54724"},{"id":"64287","name":"HULIANWANG DIGUI-34","type":"PAYLOAD","l1":"1 64287U 25121E   26202.58792294  .00000030  00000-0  36456-4 0  9997","l2":"2 64287  86.5000   1.9119 0002031  81.1435 278.9929 13.24410834 54710"},{"id":"64290","name":"SIRIUS XM-10","type":"PAYLOAD","l1":"1 64290U 25122A   26202.59330856 -.00000015  00000-0  00000-0 0  9991","l2":"2 64290   0.0160  42.3242 0001761 327.6817  26.7610  1.00270525  4026"},{"id":"64291","name":"STARLINK-34448","type":"PAYLOAD","l1":"1 64291U 25123A   26202.31218203  .00003405  00000-0  29297-3 0  9991","l2":"2 64291  70.0004 217.5592 0003869 266.0663  94.0053 14.98336773 62854"},{"id":"64292","name":"STARLINK-34362","type":"PAYLOAD","l1":"1 64292U 25123B   26202.45805718  .00003564  00000-0  30628-3 0  9996","l2":"2 64292  70.0001 217.2641 0003690 265.3810  94.6927 14.98342095 62874"},{"id":"64293","name":"STARLINK-34428","type":"PAYLOAD","l1":"1 64293U 25123C   26202.35789908 -.00002210  00000-0 -17742-3 0  9999","l2":"2 64293  70.0007 217.3141 0003421 267.5121  92.5647 14.98336191 62863"},{"id":"64294","name":"STARLINK-34388","type":"PAYLOAD","l1":"1 64294U 25123D   26202.33305206  .00003254  00000-0  28031-3 0  9993","l2":"2 64294  69.9999 217.6259 0004271 262.9988  97.0685 14.98337262 62859"},{"id":"64295","name":"STARLINK-34424","type":"PAYLOAD","l1":"1 64295U 25123E   26202.34123941  .00003840  00000-0  32934-3 0  9997","l2":"2 64295  70.0001 217.6489 0004212 270.8683  89.1994 14.98338182 62854"},{"id":"64296","name":"STARLINK-34443","type":"PAYLOAD","l1":"1 64296U 25123F   26202.30785376  .00003279  00000-0  28243-3 0  9994","l2":"2 64296  70.0006 217.5383 0003782 263.5538  96.5191 14.98339372 62854"},{"id":"64297","name":"STARLINK-34369","type":"PAYLOAD","l1":"1 64297U 25123G   26202.32054145  .00003308  00000-0  28477-3 0  9992","l2":"2 64297  70.0005 217.5791 0004243 264.7467  95.3208 14.98342171 61636"}]}