OBJECT_NAME,OBJECT_ID,EPOCH,MEAN_MOTION,ECCENTRICITY,INCLINATION,RA_OF_ASC_NODE,ARG_OF_PERICENTER,MEAN_ANOMALY,EPHEMERIS_TYPE,CLASSIFICATION_TYPE,NORAD_CAT_ID,ELEMENT_SET_NO,REV_AT_EPOCH,BSTAR,MEAN_MOTION_DOT,MEAN_MOTION_DDOT
STARLINK-34315,2025-120L,2026-07-21T08:08:27.603168,15.34402509,.00009295,53.1575,215.5377,79.0668,281.0439,0,U,64266,999,6432,.47545284E-3,.15723E-3,0
STARLINK-34321,2025-120M,2026-07-21T07:43:32.188512,15.34399474,.00011798,53.1567,211.8819,92.8536,267.2602,0,U,64267,999,6443,.21853599E-3,.7014E-4,0
STARLINK-34319,2025-120N,2026-07-21T09:41:34.060416,15.34404709,.00009662,53.1569,211.6803,122.8653,237.2443,0,U,64268,999,6443,.35281811E-3,.11565E-3,0
STARLINK-34298,2025-120P,2026-07-21T06:12:46.231488,15.34402806,.00010127,53.1558,212.2005,87.7414,272.3704,0,U,64269,999,6432,.43559988E-3,.14371E-3,0
STARLINK-34219,2025-120Q,2026-07-21T10:03:27.817344,15.34405907,.00013291,53.1590,215.3264,67.9585,292.1558,0,U,64270,999,6439,.47141217E-3,.15587E-3,0
STARLINK-34342,2025-120R,2026-07-21T10:42:43.221312,15.34407371,.00009956,53.1581,214.7909,55.0540,305.0556,0,U,64271,999,6435,.49534151E-3,.164E-3,0
STARLINK-34001,2025-120S,2026-07-21T11:00:54.074880,15.34405927,.00009583,53.1576,214.8663,94.5360,265.5752,0,U,64272,999,6430,.48314823E-3,.15986E-3,0
STARLINK-34334,2025-120T,2026-07-21T10:39:40.905216,15.34428107,.00009149,53.1594,214.7699,83.8637,276.2470,0,U,64273,999,6440,.5668116E-3,.1884E-3,0
STARLINK-34272,2025-120U,2026-07-21T07:38:09.677184,15.34398212,.00007417,53.1590,215.4098,80.9114,279.1972,0,U,64274,999,6428,.30290632E-3,.9871E-4,0
STARLINK-34293,2025-120V,2026-07-21T05:12:59.213664,15.34400811,.00009032,53.1575,216.1967,87.1229,272.9877,0,U,64275,999,6430,.38263724E-3,.12574E-3,0
STARLINK-34350,2025-120W,2026-07-21T07:52:37.555680,15.34399663,.00011335,53.1564,211.9167,88.1760,271.9373,0,U,64276,999,6443,.22934665E-3,.738E-4,0
STARLINK-34264,2025-120X,2026-07-21T10:00:25.906464,15.34406305,.00006337,53.1587,215.3088,86.9558,273.1517,0,U,64277,999,6433,.36552574E-3,.11996E-3,0
STARLINK-34353,2025-120Y,2026-07-21T07:59:22.026912,15.34402966,.00012292,53.1573,215.4983,67.7177,292.3956,0,U,64278,999,6438,.40053547E-3,.13182E-3,0
STARLINK-34377,2025-120Z,2026-07-20T10:02:30.541920,15.34405628,.00005012,53.1570,216.1926,158.0222,202.0802,0,U,64279,999,6429,.40988113E-3,.135E-3,0
STARLINK-34359,2025-120AA,2026-07-21T09:51:20.420064,15.34408439,.00009496,53.1582,215.2703,73.1256,286.9850,0,U,64280,999,6439,.44516671E-3,.14698E-3,0
STARLINK-34366,2025-120AB,2026-07-21T08:05:25.764000,15.34402667,.00017198,53.1587,215.5213,95.4404,264.6795,0,U,64281,999,6433,.38925348E-3,.12799E-3,0
STARLINK-34381,2025-120AC,2026-07-21T14:00:01.999872,15.34341825,.00013686,53.1603,214.8058,96.4914,323.6302,0,U,64282,999,582,.11169613E-2,.37481E-3,0
HULIANWANG DIGUI-30,2025-121A,2026-07-21T13:01:24.817440,13.24409634,.00019082,86.5003,1.9638,88.9838,271.1515,0,U,64283,999,5470,.98078591E-4,.57E-6,0
HULIANWANG DIGUI-31,2025-121B,2026-07-21T14:39:21.877632,13.24414583,.00019007,86.5023,2.0187,89.3636,270.7716,0,U,64284,999,5471,.69306184E-4,.44E-6,0
HULIANWANG DIGUI-32,2025-121C,2026-07-21T14:28:18.425856,13.24410440,.00018967,86.4965,1.7724,93.8797,266.2554,0,U,64285,999,5471,.35742572E-4,.3E-6,0
HULIANWANG DIGUI-33,2025-121D,2026-07-21T16:06:13.714848,13.24410073,.0001916,86.5022,1.9817,89.7623,270.3730,0,U,64286,999,5472,.12829167E-4,.2E-6,0
HULIANWANG DIGUI-34,2025-121E,2026-07-21T14:06:36.542016,13.24410834,.00020311,86.5000,1.9119,81.1435,278.9929,0,U,64287,999,5471,.36456161E-4,.3E-6,0
SXM-10,2025-122A,2026-07-21T14:14:21.859584,1.00270525,.00017606,0.0160,42.3242,327.6817,26.7610,0,U,64290,999,402,0,-.15E-6,0
STARLINK-34448,2025-123A,2026-07-21T07:29:32.527392,14.98336773,.0003869,70.0004,217.5592,266.0663,94.0053,0,U,64291,999,6285,.29297251E-3,.3405E-4,0
STARLINK-34362,2025-123B,2026-07-21T10:59:36.140352,14.98342095,.000369,70.0001,217.2641,265.3810,94.6927,0,U,64292,999,6287,.30627547E-3,.3564E-4,0
STARLINK-34428,2025-123C,2026-07-21T08:35:22.480512,14.98336191,.00034205,70.0007,217.3141,267.5121,92.5647,0,U,64293,999,6286,-.17741775E-3,-.221E-4,0
STARLINK-34388,2025-123D,2026-07-21T07:59:35.697984,14.98337262,.00042706,69.9999,217.6259,262.9988,97.0685,0,U,64294,999,6285,.28031164E-3,.3254E-4,0
STARLINK-34424,2025-123E,2026-07-21T08:11:23.085024,14.98338182,.00042125,70.0001,217.6489,270.8683,89.1994,0,U,64295,999,6285,.32934363E-3,.384E-4,0
STARLINK-34443,2025-123F,2026-07-21T07:23:18.564864,14.98339372,.00037817,70.0006,217.5383,263.5538,96.5191,0,U,64296,999,6285,.28242831E-3,.3279E-4,0
STARLINK-34369,2025-123G,2026-07-21T07:41:34.781280,14.98342171,.00042427,70.0005,217.5791,264.7467,95.3208,0,U,64297,999,6163,.28477329E-3,.3308E-4,0
